IRIDIUM 155             
1 43573U 18061E   25272.73498301  .00000070  00000+0  17831-4 0  9991
2 43573  86.4032 165.5415 0002333  83.2504 276.8958 14.34217651376024
IRIDIUM 154             
1 43574U 18061F   25272.71595025  .00000440  00000+0  15000-3 0  9997
2 43574  86.4037 165.6698 0002083  82.0485 278.0947 14.34220243376079
IRIDIUM 163             
1 43575U 18061G   25272.76669552  .00000127  00000+0  38430-4 0  9995
2 43575  86.4032 165.5723 0002179  89.3067 270.8378 14.34218053376057
IRIDIUM 156             
1 43576U 18061H   25272.74131369  .00000452  00000+0  15429-3 0  9997
2 43576  86.4036 165.5890 0002517  80.2687 279.8793 14.34215711376048
IRIDIUM 164             
1 43577U 18061J   25272.79206556 -.00000038  00000+0 -20601-4 0  9995
2 43577  86.4035 165.6047 0001935  78.0972 282.0441 14.34216744376096
IRIDIUM 159             
1 43578U 18061K   25272.76035226  .00000164  00000+0  51340-4 0  9999
2 43578  86.4031 165.5606 0001979  86.1790 273.9632 14.34218383376057
IRIDIUM 180             
1 43922U 19002A   25272.62031172 -.00000033  00000+0 -18777-4 0  9993
2 43922  86.3916 102.5442 0002015  92.0441 268.0985 14.34217290351641
IRIDIUM 176             
1 43923U 19002B   25272.57079289  .00000703  00000+0  10755-3 0  9998
2 43923  86.6038 102.5464 0002976  84.6954 275.4602 14.72260198360900
IRIDIUM 168             
1 43924U 19002C   25272.61396932 -.00000024  00000+0 -15586-4 0  9997
2 43924  86.3918 102.6169 0002044  89.5278 270.6152 14.34217298351624
IRIDIUM 173             
1 43925U 19002D   25272.60128334  .00000003  00000+0 -60164-5 0  9995
2 43925  86.3916 102.5217 0002155  91.8394 268.3048 14.34217590351605
IRIDIUM 169             
1 43926U 19002E   25272.69632685  .00000564  00000+0  17798-3 0  9998
2 43926  86.4232 134.1176 0003441  86.2624 273.8968 14.38610867352775
IRIDIUM 172             
1 43927U 19002F   25272.59494054  .00000026  00000+0  20738-5 0  9997
2 43927  86.3915 102.5313 0002004  95.3705 264.7719 14.34217488351613
IRIDIUM 175             
1 43928U 19002G   25272.83779704  .00002528  00000+0  39675-3 0  9990
2 43928  86.1498  48.9819 0002274  71.8309 288.3155 14.72261295360938
IRIDIUM 171             
1 43929U 19002H   25272.57591257  .00000014  00000+0 -20604-5 0  9990
2 43929  86.3926 102.8173 0001972  79.1477 280.9940 14.34217771351603
IRIDIUM 170             
1 43930U 19002J   25272.57698122  .00000711  00000+0  10878-3 0  9994
2 43930  86.6041 102.5480 0002337  86.6013 273.5472 14.72254838360918
IRIDIUM 167             
1 43931U 19002K   25272.56957058 -.00000013  00000+0 -11878-4 0  9999
2 43931  86.3918 102.5625 0002209  77.5230 282.6212 14.34217702351604
IRIDIUM 181             
1 56726U 23068S   25272.77459602  .00000705  00000+0  20349-3 0  9995
2 56726  86.4572 165.6030 0001868  70.2756 289.8646 14.43307983124878
IRIDIUM 177             
1 56727U 23068T   25271.90716916  .00001009  00000+0  12932-3 0  9991
2 56727  86.1914  92.8803 0002201  81.8092 278.3378 14.80227201127714
IRIDIUM 174             
1 56728U 23068U   25272.56461403  .00000747  00000+0  11451-3 0  9996
2 56728  86.6048 102.6742 0002446  96.6635 263.4860 14.72263910127672
IRIDIUM 178             
1 56729U 23068V   25272.63988197  .00002516  00000+0  32766-3 0  9997
2 56729  86.6550 134.2659 0002533  82.5496 277.6013 14.80242655127821
IRIDIUM 179             
1 56730U 23068W   25272.56692875  .00002546  00000+0  33159-3 0  9996
2 56730  86.6805 142.4875 0002735  73.6693 286.4829 14.80231800127813
